{"fetched_at":"2026-07-10T07:59:25.807Z","source":"https://celestrak.org/NORAD/elements/gp.php?NAME=TIGER&FORMAT=JSON","constellation":"oq-technology","records":[{"OBJECT_NAME":"TIGER-8","OBJECT_ID":"2024-043Y","EPOCH":"2026-07-09T16:40:08.541120","CLASSIFICATION_TYPE":"U","MEAN_MOTION":15.4510008,"ECCENTRICITY":0.000878,"INCLINATION":97.5564,"RA_OF_ASC_NODE":340.2186,"ARG_OF_PERICENTER":119.3724,"MEAN_ANOMALY":240.8402,"EPHEMERIS_TYPE":0,"NORAD_CAT_ID":59120,"ELEMENT_SET_NO":999,"REV_AT_EPOCH":13126,"BSTAR":0.0001746,"MEAN_MOTION_DOT":0.00008176,"MEAN_MOTION_DDOT":0},{"OBJECT_NAME":"TIGER-7","OBJECT_ID":"2024-043AV","EPOCH":"2026-07-09T16:17:43.333728","CLASSIFICATION_TYPE":"U","MEAN_MOTION":15.49263141,"ECCENTRICITY":0.0006863,"INCLINATION":97.5505,"RA_OF_ASC_NODE":342.6786,"ARG_OF_PERICENTER":92.1096,"MEAN_ANOMALY":268.0941,"EPHEMERIS_TYPE":0,"NORAD_CAT_ID":59141,"ELEMENT_SET_NO":999,"REV_AT_EPOCH":13145,"BSTAR":0.00016997,"MEAN_MOTION_DOT":0.0000919,"MEAN_MOTION_DDOT":0}]}
