TIGER-8                 
1 59120U 24043Y   26190.69454330  .00008176  00000+0  17460-3 0  9994
2 59120  97.5564 340.2186 0008780 119.3724 240.8402 15.45100080131266
TIGER-7                 
1 59141U 24043AV  26190.67897377  .00009190  00000+0  16997-3 0  9998
2 59141  97.5505 342.6786 0006863  92.1096 268.0941 15.49263141131459
